NORAD_CAT_ID,OBJECT_NAME,OBJECT_TYPE,EPOCH,MEAN_MOTION,ECCENTRICITY,INCLINATION,RA_OF_ASC_NODE,ARG_OF_PERICENTER,MEAN_ANOMALY,BSTAR,MEAN_MOTION_DOT,MEAN_MOTION_DDOT,TLE_LINE0,TLE_LINE1,TLE_LINE2,SEMIMAJOR_AXIS,PERIOD,APOGEE,PERIGEE,DECAYED
51753.0,STARLINK-3507,PAYLOAD,2024-02-02 13:44:54,15.08844015,0.0001467,53.2165,148.356,81.4116,278.7042,0.00012443,1.693e-05,0.0,0 STARLINK-3507,1 51753U 22016AR  24033.57285167  .00001693  00000-0  12443-3 0  9991,2 51753  53.2165 148.3560 0001467  81.4116 278.7042 15.08844015108040,6917.868,95.437,540.748,538.718,0.0
51753.0,STARLINK-3507,PAYLOAD,2024-02-02 15:20:17,15.08847358,0.0001719,53.218,148.0634,67.0061,293.1112,0.00014322,1.992e-05,0.0,0 STARLINK-3507,1 51753U 22016AR  24033.63909076  .00001992  00000-0  14322-3 0  9990,2 51753  53.2180 148.0634 0001719  67.0061 293.1112 15.08847358108058,6917.858,95.437,540.912,538.534,0.0
51753.0,STARLINK-3507,PAYLOAD,2024-02-03 13:35:41,15.08841362,0.0001433,53.217,143.9029,84.9024,275.2131,2.4976e-05,1.1e-06,0.0,0 STARLINK-3507,1 51753U 22016AR  24034.56645715  .00000110  00000-0  24976-4 0  9998,2 51753  53.2170 143.9029 0001433  84.9024 275.2131 15.08841362108195,6917.876,95.437,540.733,538.75,0.0
51753.0,STARLINK-3507,PAYLOAD,2024-02-03 16:46:27,15.08845366,0.0001321,53.2166,143.3067,101.2278,258.8863,3.8213e-05,3.2e-06,0.0,0 STARLINK-3507,1 51753U 22016AR  24034.69893262  .00000320  00000-0  38213-4 0  9996,2 51753  53.2166 143.3067 0001321 101.2278 258.8863 15.08845366109284,6917.864,95.437,540.643,538.815,0.0
51753.0,STARLINK-3507,PAYLOAD,2024-02-04 11:51:05,15.0883303,0.0001536,53.2181,139.7381,118.9782,241.1364,0.0001558,2.192e-05,0.0,0 STARLINK-3507,1 51753U 22016AR  24035.49381350  .00002192  00000-0  15580-3 0  9995,2 51753  53.2181 139.7381 0001536 118.9782 241.1364 15.08833030109402,6917.902,95.438,540.829,538.704,0.0
51753.0,STARLINK-3507,PAYLOAD,2024-02-04 13:26:28,15.08849039,0.0001565,53.2184,139.4389,81.5297,278.5873,-3.7239e-05,-8.81e-06,0.0,0 STARLINK-3507,1 51753U 22016AR  24035.56005229 -.00000881  00000-0 -37239-4 0  9992,2 51753  53.2184 139.4389 0001565  81.5297 278.5873 15.08849039108345,6917.853,95.437,540.8,538.635,0.0
51753.0,STARLINK-3507,PAYLOAD,2024-02-05 11:41:53,15.08833446,0.000172,53.2187,135.2777,113.126,246.9914,1.9873e-05,2.8e-07,0.0,0 STARLINK-3507,1 51753U 22016AR  24036.48742009  .00000028  00000-0  19873-4 0  9993,2 51753  53.2187 135.2777 0001720 113.1260 246.9914 15.08833446109552,6917.9,95.438,540.955,538.576,0.0
51753.0,STARLINK-3507,PAYLOAD,2024-02-05 13:17:16,15.08836925,0.0001482,53.2177,134.9807,103.9466,256.1691,3.9433e-05,3.4e-06,0.0,0 STARLINK-3507,1 51753U 22016AR  24036.55365766  .00000340  00000-0  39433-4 0  9993,2 51753  53.2177 134.9807 0001482 103.9466 256.1691 15.08836925108493,6917.89,95.438,540.78,538.73,0.0
51753.0,STARLINK-3507,PAYLOAD,2024-02-06 11:32:39,15.08847833,0.0001433,53.2178,130.8247,100.3108,259.8046,3.5753e-05,2.81e-06,0.0,0 STARLINK-3507,1 51753U 22016AR  24037.48101433  .00000281  00000-0  35753-4 0  9990,2 51753  53.2178 130.8247 0001433 100.3108 259.8046 15.08847833109706,6917.856,95.437,540.713,538.73,0.0
51753.0,STARLINK-3507,PAYLOAD,2024-02-06 13:08:02,15.08849906,0.0001521,53.2183,130.527,101.1627,258.9537,6.7649e-05,7.89e-06,0.0,0 STARLINK-3507,1 51753U 22016AR  24037.54725184  .00000789  00000-0  67649-4 0  9994,2 51753  53.2183 130.5270 0001521 101.1627 258.9537 15.08849906108648,6917.85,95.437,540.767,538.663,0.0
51753.0,STARLINK-3507,PAYLOAD,2024-02-07 12:58:50,15.08838066,0.0001486,53.2182,126.065,100.4775,259.6384,4.8188e-05,4.79e-06,0.0,0 STARLINK-3507,1 51753U 22016AR  24038.54086040  .00000479  00000-0  48188-4 0  9999,2 51753  53.2182 126.0650 0001486 100.4775 259.6384 15.08838066109863,6917.886,95.438,540.779,538.723,0.0
51753.0,STARLINK-3507,PAYLOAD,2024-02-08 12:49:37,15.08845549,0.0001343,53.2167,121.6043,97.604,262.5105,2.3486e-05,8.6e-07,0.0,0 STARLINK-3507,1 51753U 22016AR  24039.53445896  .00000086  00000-0  23486-4 0  9995,2 51753  53.2167 121.6043 0001343  97.6040 262.5105 15.08845549108943,6917.863,95.437,540.657,538.799,0.0
51753.0,STARLINK-3507,PAYLOAD,2024-02-09 11:05:00,15.0885432,0.0001389,53.2165,117.4396,85.4006,274.7145,0.00018833,2.712e-05,0.0,0 STARLINK-3507,1 51753U 22016AR  24040.46180780  .00002712  00000-0  18833-3 0  9994,2 51753  53.2165 117.4396 0001389  85.4006 274.7145 15.08854320110154,6917.837,95.437,540.663,538.741,0.0
51753.0,STARLINK-3507,PAYLOAD,2024-02-09 12:40:22,15.08861073,0.0001379,53.2168,117.141,79.7992,280.3156,0.00023094,3.391e-05,0.0,0 STARLINK-3507,1 51753U 22016AR  24040.52804218  .00003391  00000-0  23094-3 0  9999,2 51753  53.2168 117.1410 0001379  79.7992 280.3156 15.08861073109099,6917.816,95.436,540.635,538.727,0.0
51753.0,STARLINK-3507,PAYLOAD,2024-02-10 10:55:48,15.08837364,0.0001442,53.2167,112.9839,91.3266,268.7891,-2.7996e-05,-7.33e-06,0.0,0 STARLINK-3507,1 51753U 22016AR  24041.45542614 -.00000733  00000-0 -27996-4 0  9996,2 51753  53.2167 112.9839 0001442  91.3266 268.7891 15.08837364110309,6917.888,95.438,540.751,538.756,0.0
51753.0,STARLINK-3507,PAYLOAD,2024-02-11 10:46:35,15.08852553,0.0001701,53.218,108.5172,92.1991,267.9196,-3.5523e-05,-8.54e-06,0.0,0 STARLINK-3507,1 51753U 22016AR  24042.44901785 -.00000854  00000-0 -35523-4 0  9993,2 51753  53.2180 108.5172 0001701  92.1991 267.9196 15.08852553110459,6917.842,95.437,540.884,538.53,0.0
51753.0,STARLINK-3507,PAYLOAD,2024-02-12 04:15:49,15.08840361,0.0001831,53.2184,105.2469,86.022,274.0982,0.00015446,2.171e-05,0.0,0 STARLINK-3507,1 51753U 22016AR  24043.17765818  .00002171  00000-0  15446-3 0  9992,2 51753  53.2184 105.2469 0001831  86.0220 274.0982 15.08840361110565,6917.879,95.438,541.011,538.478,0.0
51753.0,STARLINK-3507,PAYLOAD,2024-02-12 13:48:08,15.08844905,0.000178,53.2178,103.4623,90.2235,269.8961,0.00019175,2.765e-05,0.0,0 STARLINK-3507,1 51753U 22016AR  24043.57509542  .00002765  00000-0  19175-3 0  9998,2 51753  53.2178 103.4623 0001780  90.2235 269.8961 15.08844905109550,6917.865,95.437,540.962,538.499,0.0
51753.0,STARLINK-3507,PAYLOAD,2024-02-13 04:06:37,15.08833173,0.0002068,53.2177,100.7834,99.9299,260.1927,-7.5616e-05,-1.491e-05,0.0,0 STARLINK-3507,1 51753U 22016AR  24044.17127133 -.00001491  00000-0 -75616-4 0  9997,2 51753  53.2177 100.7834 0002068  99.9299 260.1927 15.08833173110710,6917.901,95.438,541.197,538.336,0.0
51753.0,STARLINK-3507,PAYLOAD,2024-02-13 10:28:10,15.08834054,0.0001528,53.2178,99.5966,100.5912,259.5253,-3.1945e-05,-7.96e-06,0.0,0 STARLINK-3507,1 51753U 22016AR  24044.43623115 -.00000796  00000-0 -31945-4 0  9991,2 51753  53.2178  99.5966 0001528 100.5912 259.5253 15.08834054109680,6917.899,95.438,540.821,538.707,0.0
51753.0,STARLINK-3507,PAYLOAD,2024-02-13 20:00:29,15.08837294,0.0001562,53.2179,97.8123,99.647,260.4699,5.1323e-06,-2.06e-06,0.0,0 STARLINK-3507,1 51753U 22016AR  24044.83367010 -.00000206  00000-0  51323-5 0  9992,2 51753  53.2179  97.8123 0001562  99.6470 260.4699 15.08837294109743,6917.889,95.438,540.834,538.673,0.0
51753.0,STARLINK-3507,PAYLOAD,2024-02-14 03:57:24,15.08842877,0.0001434,53.2172,96.325,96.5785,263.537,4.9277e-05,4.96e-06,0.0,0 STARLINK-3507,1 51753U 22016AR  24045.16486613  .00000496  00000-0  49277-4 0  9994,2 51753  53.2172  96.3250 0001434  96.5785 263.5370 15.08842877110862,6917.872,95.437,540.729,538.745,0.0
51753.0,STARLINK-3507,PAYLOAD,2024-02-14 10:18:56,15.08851406,0.0001438,53.2161,95.137,94.0481,266.0675,0.00024489,3.613e-05,0.0,0 STARLINK-3507,1 51753U 22016AR  24045.42982135  .00003613  00000-0  24489-3 0  9994,2 51753  53.2161  95.1370 0001438  94.0481 266.0675 15.08851406109839,6917.846,95.437,540.705,538.716,0.0
51753.0,STARLINK-3507,PAYLOAD,2024-02-14 19:51:15,15.0884796,0.0001515,53.2167,93.3507,87.7896,272.327,0.00010599,1.4e-05,0.0,0 STARLINK-3507,1 51753U 22016AR  24045.82726041  .00001400  00000-0  10599-3 0  9999,2 51753  53.2167  93.3507 0001515  87.7896 272.3270 15.08847960109899,6917.856,95.437,540.769,538.673,0.0
51753.0,STARLINK-3507,PAYLOAD,2024-02-15 08:34:21,15.08828703,0.0001553,53.2165,90.9719,78.7949,281.3217,-5.919e-05,-1.23e-05,0.0,0 STARLINK-3507,1 51753U 22016AR  24046.35719428 -.00001230  00000-0 -59190-4 0  9993,2 51753  53.2165  90.9719 0001553  78.7949 281.3217 15.08828703111041,6917.915,95.438,540.854,538.706,0.0
51753.0,STARLINK-3507,PAYLOAD,2024-02-15 19:42:03,15.0883658,0.0001703,53.2164,88.8919,85.1598,274.9588,9.5042e-05,1.225e-05,0.0,0 STARLINK-3507,1 51753U 22016AR  24046.82087461  .00001225  00000-0  95042-4 0  9998,2 51753  53.2164  88.8919 0001703  85.1598 274.9588 15.08836580110047,6917.891,95.438,540.934,538.578,0.0
51753.0,STARLINK-3507,PAYLOAD,2024-02-16 10:00:31,15.08852971,0.0001607,53.2163,86.2149,81.9646,278.1528,0.00083929,0.00013099,0.0,0 STARLINK-3507,1 51753U 22016AR  24047.41703213  .00013099  00000-0  83929-3 0  9996,2 51753  53.2163  86.2149 0001607  81.9646 278.1528 15.08852971111205,6917.841,95.437,540.817,538.594,0.0
51753.0,STARLINK-3507,PAYLOAD,2024-02-16 11:35:54,15.08857294,0.0001689,53.216,85.9173,81.9732,278.1451,0.0010023,0.00015707,0.0,0 STARLINK-3507,1 51753U 22016AR  24047.48327163  .00015707  00000-0  10023-2 0  9991,2 51753  53.2160  85.9173 0001689  81.9732 278.1451 15.08857294110141,6917.828,95.436,540.861,538.524,0.0
51753.0,STARLINK-3507,PAYLOAD,2024-02-17 01:54:23,15.08842479,0.0001617,53.2166,83.2405,80.8572,279.2603,0.00028525,4.255e-05,0.0,0 STARLINK-3507,1 51753U 22016AR  24048.07943480  .00004255  00000-0  28525-3 0  9996,2 51753  53.2166  83.2405 0001617  80.8572 279.2603 15.08842479111306,6917.873,95.437,540.856,538.619,0.0
51753.0,STARLINK-3507,PAYLOAD,2024-02-17 11:26:41,15.08848001,0.0001589,53.2154,81.4564,91.232,268.8854,0.00057609,8.894e-05,0.0,0 STARLINK-3507,1 51753U 22016AR  24048.47687365  .00008894  00000-0  57609-3 0  9995,2 51753  53.2154  81.4564 0001589  91.2320 268.8854 15.08848001110290,6917.856,95.437,540.82,538.622,0.0
